{
  "type": "FeatureCollection",
  "features": [
    {
      "type": "Feature",
      "properties": {
        "norad_id": 29268,
        "name": "ARIRANG-2 (KOMPSAT-2)",
        "group": "resource",
        "lat": -34.47687660811532,
        "lon": -17.74532375590388,
        "alt_km": 689.9924981459935,
        "timestamp": "2025-12-04T19:33:59.287937+00:00",
        "meta_object_name": "ARIRANG-2 (KOMPSAT-2)",
        "meta_object_id": "2006-031A",
        "meta_epoch": "2025-12-04T07:54:00.420192",
        "meta_mean_motion": 14.6448248,
        "meta_eccentricity": 0.00139443,
        "meta_inclination": 97.8264,
        "meta_ra_of_asc_node": 167.2121,
        "meta_arg_of_pericenter": 337.0021,
        "meta_mean_anomaly": 196.6447,
        "meta_ephemeris_type": 0,
        "meta_classification_type": "U",
        "meta_norad_cat_id": 29268,
        "meta_element_set_no": 999,
        "meta_rev_at_epoch": 3295,
        "meta_bstar": 0.00016103808,
        "meta_mean_motion_dot": 8.09e-06,
        "meta_mean_motion_ddot": 0,
        "tle_line1": "1 29268U 06031A   25338.32917153  .00000809  00000+0  16104-3 0  9990",
        "tle_line2": "2 29268  97.8264 167.2121 0013944 337.0021 196.6447 14.64482480 32959"
      },
      "geometry": {
        "type": "Point",
        "coordinates": [
          -17.74532375590388,
          -34.47687660811532
        ]
      }
    },
    {
      "type": "Feature",
      "properties": {
        "norad_id": 29709,
        "name": "LAPAN-TUBSAT",
        "group": "resource",
        "lat": -80.99960465938635,
        "lon": 84.38921899790101,
        "alt_km": 628.2139362200223,
        "timestamp": "2025-12-04T19:33:59.287947+00:00",
        "meta_object_name": "LAPAN-TUBSAT",
        "meta_object_id": "2007-001A",
        "meta_epoch": "2025-12-04T07:03:28.428192",
        "meta_mean_motion": 14.85651207,
        "meta_eccentricity": 0.00136102,
        "meta_inclination": 98.1252,
        "meta_ra_of_asc_node": 328.2773,
        "meta_arg_of_pericenter": 99.1369,
        "meta_mean_anomaly": 261.1386,
        "meta_ephemeris_type": 0,
        "meta_classification_type": "U",
        "meta_norad_cat_id": 29709,
        "meta_element_set_no": 999,
        "meta_rev_at_epoch": 2221,
        "meta_bstar": 0.0001586467,
        "meta_mean_motion_dot": 1.319e-05,
        "meta_mean_motion_ddot": 0,
        "tle_line1": "1 29709U 07001A   25338.29407903  .00001319  00000+0  15865-3 0  9991",
        "tle_line2": "2 29709  98.1252 328.2773 0013610  99.1369 261.1386 14.85651207 22219"
      },
      "geometry": {
        "type": "Point",
        "coordinates": [
          84.38921899790101,
          -80.99960465938635
        ]
      }
    },
    {
      "type": "Feature",
      "properties": {
        "norad_id": 31113,
        "name": "HAIYANG-1B",
        "group": "resource",
        "lat": -81.64025424937593,
        "lon": 57.772596808507274,
        "alt_km": 804.9426148803896,
        "timestamp": "2025-12-04T19:33:59.287956+00:00",
        "meta_object_name": "HAIYANG-1B",
        "meta_object_id": "2007-010A",
        "meta_epoch": "2025-12-04T04:53:10.930272",
        "meta_mean_motion": 14.30960734,
        "meta_eccentricity": 0.00145664,
        "meta_inclination": 98.3307,
        "meta_ra_of_asc_node": 322.8348,
        "meta_arg_of_pericenter": 61.6251,
        "meta_mean_anomaly": 298.6399,
        "meta_ephemeris_type": 0,
        "meta_classification_type": "U",
        "meta_norad_cat_id": 31113,
        "meta_element_set_no": 999,
        "meta_rev_at_epoch": 97274,
        "meta_bstar": 0.00011716773,
        "meta_mean_motion_dot": 2.67e-06,
        "meta_mean_motion_ddot": 0,
        "tle_line1": "1 31113U 07010A   25338.20359873  .00000267  00000+0  11717-3 0  9999",
        "tle_line2": "2 31113  98.3307 322.8348 0014566  61.6251 298.6399 14.30960734972746"
      },
      "geometry": {
        "type": "Point",
        "coordinates": [
          57.772596808507274,
          -81.64025424937593
        ]
      }
    },
    {
      "type": "Feature",
      "properties": {
        "norad_id": 31598,
        "name": "COSMO-SKYMED 1",
        "group": "resource",
        "lat": -63.169863662271744,
        "lon": -179.93708821441618,
        "alt_km": 588.2233078013196,
        "timestamp": "2025-12-04T19:33:59.287966+00:00",
        "meta_object_name": "COSMO-SKYMED 1",
        "meta_object_id": "2007-023A",
        "meta_epoch": "2025-12-04T07:00:30.547008",
        "meta_mean_motion": 14.95669801,
        "meta_eccentricity": 0.00013599,
        "meta_inclination": 97.8838,
        "meta_ra_of_asc_node": 163.6365,
        "meta_arg_of_pericenter": 79.8505,
        "meta_mean_anomaly": 280.2869,
        "meta_ephemeris_type": 0,
        "meta_classification_type": "U",
        "meta_norad_cat_id": 31598,
        "meta_element_set_no": 999,
        "meta_rev_at_epoch": 64,
        "meta_bstar": 0.00073265811,
        "meta_mean_motion_dot": 8.095e-05,
        "meta_mean_motion_ddot": 0,
        "tle_line1": "1 31598U 07023A   25338.29202022  .00008095  00000+0  73266-3 0  9996",
        "tle_line2": "2 31598  97.8838 163.6365 0001359  79.8505 280.2869 14.95669801   647"
      },
      "geometry": {
        "type": "Point",
        "coordinates": [
          -179.93708821441618,
          -63.169863662271744
        ]
      }
    },
    {
      "type": "Feature",
      "properties": {
        "norad_id": 31698,
        "name": "TERRASAR-X",
        "group": "resource",
        "lat": 4.335591575125114,
        "lon": -16.25537220968409,
        "alt_km": 510.59086871812724,
        "timestamp": "2025-12-04T19:33:59.287975+00:00",
        "meta_object_name": "TERRASAR-X",
        "meta_object_id": "2007-026A",
        "meta_epoch": "2025-12-03T15:05:32.684928",
        "meta_mean_motion": 15.19160309,
        "meta_eccentricity": 0.0001999,
        "meta_inclination": 97.4447,
        "meta_ra_of_asc_node": 343.1435,
        "meta_arg_of_pericenter": 87.129,
        "meta_mean_anomaly": 273.0173,
        "meta_ephemeris_type": 0,
        "meta_classification_type": "U",
        "meta_norad_cat_id": 31698,
        "meta_element_set_no": 999,
        "meta_rev_at_epoch": 2353,
        "meta_bstar": 0.00010298495,
        "meta_mean_motion_dot": 2.097e-05,
        "meta_mean_motion_ddot": 0,
        "tle_line1": "1 31698U 07026A   25337.62885052  .00002097  00000+0  10298-3 0  9998",
        "tle_line2": "2 31698  97.4447 343.1435 0001999  87.1290 273.0173 15.19160309 23533"
      },
      "geometry": {
        "type": "Point",
        "coordinates": [
          -16.25537220968409,
          4.335591575125114
        ]
      }
    },
    {
      "type": "Feature",
      "properties": {
        "norad_id": 32060,
        "name": "WORLDVIEW-1 (WV-1)",
        "group": "resource",
        "lat": -30.758758045331284,
        "lon": -88.01733237930915,
        "alt_km": 498.6366502160781,
        "timestamp": "2025-12-04T19:33:59.287985+00:00",
        "meta_object_name": "WORLDVIEW-1 (WV-1)",
        "meta_object_id": "2007-041A",
        "meta_epoch": "2025-12-04T07:37:00.691104",
        "meta_mean_motion": 15.2447385,
        "meta_eccentricity": 7.621e-05,
        "meta_inclination": 97.3841,
        "meta_ra_of_asc_node": 95.9186,
        "meta_arg_of_pericenter": 95.8163,
        "meta_mean_anomaly": 264.3162,
        "meta_ephemeris_type": 0,
        "meta_classification_type": "U",
        "meta_norad_cat_id": 32060,
        "meta_element_set_no": 999,
        "meta_rev_at_epoch": 1319,
        "meta_bstar": 0.00072682955,
        "meta_mean_motion_dot": 0.0001781,
        "meta_mean_motion_ddot": 0,
        "tle_line1": "1 32060U 07041A   25338.31736911  .00017810  00000+0  72683-3 0  9990",
        "tle_line2": "2 32060  97.3841  95.9186 0000762  95.8163 264.3162 15.24473850 13197"
      },
      "geometry": {
        "type": "Point",
        "coordinates": [
          -88.01733237930915,
          -30.758758045331284
        ]
      }
    },
    {
      "type": "Feature",
      "properties": {
        "norad_id": 32289,
        "name": "YAOGAN-3",
        "group": "resource",
        "lat": -46.52982273160724,
        "lon": 13.86684442375793,
        "alt_km": 605.9649121120128,
        "timestamp": "2025-12-04T19:33:59.287994+00:00",
        "meta_object_name": "YAOGAN-3",
        "meta_object_id": "2007-055A",
        "meta_epoch": "2025-12-04T08:29:38.012352",
        "meta_mean_motion": 14.89794259,
        "meta_eccentricity": 0.0001512,
        "meta_inclination": 97.8371,
        "meta_ra_of_asc_node": 5.0553,
        "meta_arg_of_pericenter": 78.929,
        "meta_mean_anomaly": 281.2098,
        "meta_ephemeris_type": 0,
        "meta_classification_type": "U",
        "meta_norad_cat_id": 32289,
        "meta_element_set_no": 999,
        "meta_rev_at_epoch": 97684,
        "meta_bstar": 0.00064691939,
        "meta_mean_motion_dot": 6.154e-05,
        "meta_mean_motion_ddot": 0,
        "tle_line1": "1 32289U 07055A   25338.35391218  .00006154  00000+0  64692-3 0  9999",
        "tle_line2": "2 32289  97.8371   5.0553 0001512  78.9290 281.2098 14.89794259976845"
      },
      "geometry": {
        "type": "Point",
        "coordinates": [
          13.86684442375793,
          -46.52982273160724
        ]
      }
    }
  ]
}